{
    "links": {
        "self": "http://www.neowsapp.com/rest/v1/neo/3698518?api_key=iIulBulltgU6a56xZRHN4H3l9WmuAYTsLGpBGhQ2"
    },
    "id": "3698518",
    "neo_reference_id": "3698518",
    "name": "(2014 HS197)",
    "designation": "2014 HS197",
    "nasa_jpl_url": "http://ssd.jpl.nasa.gov/sbdb.cgi?sstr=3698518",
    "absolute_magnitude_h": 29.4,
    "estimated_diameter": {
        "kilometers": {
            "estimated_diameter_min": 0.0035039264,
            "estimated_diameter_max": 0.0078350176
        },
        "meters": {
            "estimated_diameter_min": 3.5039264111,
            "estimated_diameter_max": 7.8350176433
        },
        "miles": {
            "estimated_diameter_min": 0.0021772383,
            "estimated_diameter_max": 0.0048684527
        },
        "feet": {
            "estimated_diameter_min": 11.4958219265,
            "estimated_diameter_max": 25.705439285
        }
    },
    "is_potentially_hazardous_asteroid": false,
    "close_approach_data": [
        {
            "close_approach_date": "2014-04-20",
            "close_approach_date_full": "2014-Apr-20 16:03",
            "epoch_date_close_approach": 1398009780000,
            "relative_velocity": {
                "kilometers_per_second": "17.337721074",
                "kilometers_per_hour": "62415.7958664382",
                "miles_per_hour": "38782.7482704543"
            },
            "miss_distance": {
                "astronomical": "0.0073787739",
                "lunar": "2.8703430471",
                "kilometers": "1103848.858651593",
                "miles": "685899.8751662634"
            },
            "orbiting_body": "Earth"
        },
        {
            "close_approach_date": "2014-04-20",
            "close_approach_date_full": "2014-Apr-20 18:33",
            "epoch_date_close_approach": 1398018780000,
            "relative_velocity": {
                "kilometers_per_second": "18.2283620956",
                "kilometers_per_hour": "65622.103544021",
                "miles_per_hour": "40775.0231715613"
            },
            "miss_distance": {
                "astronomical": "0.0087475594",
                "lunar": "3.4028006066",
                "kilometers": "1308616.253938478",
                "miles": "813136.4345598764"
            },
            "orbiting_body": "Moon"
        }
    ],
    "orbital_data": {
        "orbit_id": "8",
        "orbit_determination_date": "2019-07-19 05:25:48",
        "first_observation_date": "2014-04-23",
        "last_observation_date": "2014-04-25",
        "data_arc_in_days": 2,
        "observations_used": 32,
        "orbit_uncertainty": "8",
        "minimum_orbit_intersection": ".00615911",
        "jupiter_tisserand_invariant": "3.185",
        "epoch_osculation": "2456771.5",
        "eccentricity": ".6833067788330331",
        "semi_major_axis": "2.355834609011774",
        "inclination": "6.699231525457876",
        "ascending_node_longitude": "212.8804885398506",
        "orbital_period": "1320.734806336363",
        "perihelion_distance": ".7460768508645607",
        "perihelion_argument": "288.3904277076592",
        "aphelion_distance": "3.965592367158988",
        "perihelion_time": "2456725.221623845793",
        "mean_anomaly": "12.6143532642476",
        "mean_motion": ".2725755377028472",
        "equinox": "J2000",
        "orbit_class": {
            "orbit_class_type": "APO",
            "orbit_class_description": "Near-Earth asteroid orbits which cross the Earth’s orbit similar to that of 1862 Apollo",
            "orbit_class_range": "a (semi-major axis) > 1.0 AU; q (perihelion) < 1.017 AU"
        }
    },
    "is_sentry_object": false
}